[{"OBJECT_NAME":"ARABSAT-7B (BADR-8)","OBJECT_ID":"2023-075A","EPOCH":"2026-05-22T01:41:38.669280","MEAN_MOTION":1.00271455,"ECCENTRICITY":0.00048936,"INCLINATION":0.0789,"RA_OF_ASC_NODE":29.0188,"ARG_OF_PERICENTER":347.7619,"MEAN_ANOMALY":274.3368,"EPHEMERIS_TYPE":0,"CLASSIFICATION_TYPE":"U","NORAD_CAT_ID":56757,"ELEMENT_SET_NO":999,"REV_AT_EPOCH":1085,"BSTAR":0,"MEAN_MOTION_DOT":1.36e-06,"MEAN_MOTION_DDOT":0},{"OBJECT_NAME":"NVS-01 (IRNSS-1J)","OBJECT_ID":"2023-076A","EPOCH":"2026-05-22T06:12:16.567776","MEAN_MOTION":1.00265997,"ECCENTRICITY":0.00042396,"INCLINATION":2.2255,"RA_OF_ASC_NODE":245.4884,"ARG_OF_PERICENTER":54.0589,"MEAN_ANOMALY":162.8759,"EPHEMERIS_TYPE":0,"CLASSIFICATION_TYPE":"U","NORAD_CAT_ID":56759,"ELEMENT_SET_NO":999,"REV_AT_EPOCH":1085,"BSTAR":0,"MEAN_MOTION_DOT":-3.45e-06,"MEAN_MOTION_DDOT":0},{"OBJECT_NAME":"NUSANTARA TIGA (SATRIA)","OBJECT_ID":"2023-086A","EPOCH":"2026-05-21T23:26:21.791904","MEAN_MOTION":1.00268219,"ECCENTRICITY":0.00041298,"INCLINATION":0.0396,"RA_OF_ASC_NODE":331.0715,"ARG_OF_PERICENTER":14.306,"MEAN_ANOMALY":31.8281,"EPHEMERIS_TYPE":0,"CLASSIFICATION_TYPE":"U","NORAD_CAT_ID":57045,"ELEMENT_SET_NO":999,"REV_AT_EPOCH":949,"BSTAR":0,"MEAN_MOTION_DOT":-2.43e-06,"MEAN_MOTION_DDOT":0},{"OBJECT_NAME":"H2SAT (HEINRICH HERTZ)","OBJECT_ID":"2023-093A","EPOCH":"2026-05-21T22:44:49.264224","MEAN_MOTION":1.00270274,"ECCENTRICITY":7.841e-05,"INCLINATION":0.01,"RA_OF_ASC_NODE":252.2229,"ARG_OF_PERICENTER":204.2649,"MEAN_ANOMALY":124.9861,"EPHEMERIS_TYPE":0,"CLASSIFICATION_TYPE":"U","NORAD_CAT_ID":57213,"ELEMENT_SET_NO":999,"REV_AT_EPOCH":1065,"BSTAR":0,"MEAN_MOTION_DOT":-6e-08,"MEAN_MOTION_DDOT":0},{"OBJECT_NAME":"SYRACUSE 4B","OBJECT_ID":"2023-093B","EPOCH":"2026-05-22T05:33:27.788832","MEAN_MOTION":1.00270676,"ECCENTRICITY":1.904e-05,"INCLINATION":0.0135,"RA_OF_ASC_NODE":318.9504,"ARG_OF_PERICENTER":250.037,"MEAN_ANOMALY":107.7655,"EPHEMERIS_TYPE":0,"CLASSIFICATION_TYPE":"U","NORAD_CAT_ID":57214,"ELEMENT_SET_NO":999,"REV_AT_EPOCH":670,"BSTAR":0,"MEAN_MOTION_DOT":-6.2e-07,"MEAN_MOTION_DDOT":0},{"OBJECT_NAME":"JUPITER 3 (ECHOSTAR 24)","OBJECT_ID":"2023-108A","EPOCH":"2026-05-21T14:23:55.171968","MEAN_MOTION":1.00270254,"ECCENTRICITY":0.00011995,"INCLINATION":0.0174,"RA_OF_ASC_NODE":304.9705,"ARG_OF_PERICENTER":124.3719,"MEAN_ANOMALY":290.6705,"EPHEMERIS_TYPE":0,"CLASSIFICATION_TYPE":"U","NORAD_CAT_ID":57479,"ELEMENT_SET_NO":999,"REV_AT_EPOCH":1038,"BSTAR":0,"MEAN_MOTION_DOT":0,"MEAN_MOTION_DDOT":0},{"OBJECT_NAME":"GALAXY 37 (G-37)","OBJECT_ID":"2023-112A","EPOCH":"2026-05-21T22:08:30.405696","MEAN_MOTION":1.0027351,"ECCENTRICITY":0.00018443,"INCLINATION":0.0154,"RA_OF_ASC_NODE":297.8291,"ARG_OF_PERICENTER":116.541,"MEAN_ANOMALY":30.3315,"EPHEMERIS_TYPE":0,"CLASSIFICATION_TYPE":"U","NORAD_CAT_ID":57493,"ELEMENT_SET_NO":999,"REV_AT_EPOCH":1027,"BSTAR":0,"MEAN_MOTION_DOT":4e-07,"MEAN_MOTION_DDOT":0},{"OBJECT_NAME":"LUDI TANCE-4 01A","OBJECT_ID":"2023-120A","EPOCH":"2026-05-22T03:14:21.793344","MEAN_MOTION":1.002741,"ECCENTRICITY":0.00013057,"INCLINATION":15.1171,"RA_OF_ASC_NODE":194.6072,"ARG_OF_PERICENTER":93.4316,"MEAN_ANOMALY":89.9359,"EPHEMERIS_TYPE":0,"CLASSIFICATION_TYPE":"U","NORAD_CAT_ID":57624,"ELEMENT_SET_NO":999,"REV_AT_EPOCH":1028,"BSTAR":0,"MEAN_MOTION_DOT":-1.89e-06,"MEAN_MOTION_DDOT":0},{"OBJECT_NAME":"TJS-10","OBJECT_ID":"2023-169A","EPOCH":"2026-05-21T17:53:08.710080","MEAN_MOTION":1.00273199,"ECCENTRICITY":0.0003413,"INCLINATION":2.4785,"RA_OF_ASC_NODE":80.787,"ARG_OF_PERICENTER":105.3283,"MEAN_ANOMALY":54.0044,"EPHEMERIS_TYPE":0,"CLASSIFICATION_TYPE":"U","NORAD_CAT_ID":58204,"ELEMENT_SET_NO":999,"REV_AT_EPOCH":927,"BSTAR":0,"MEAN_MOTION_DOT":-2.57e-06,"MEAN_MOTION_DDOT":0},{"OBJECT_NAME":"ZHONGXING-6E","OBJECT_ID":"2023-172A","EPOCH":"2026-05-22T01:09:38.706624","MEAN_MOTION":1.00271593,"ECCENTRICITY":0.00025557,"INCLINATION":0.0469,"RA_OF_ASC_NODE":99.5032,"ARG_OF_PERICENTER":328.6267,"MEAN_ANOMALY":304.4793,"EPHEMERIS_TYPE":0,"CLASSIFICATION_TYPE":"U","NORAD_CAT_ID":58253,"ELEMENT_SET_NO":999,"REV_AT_EPOCH":939,"BSTAR":0,"MEAN_MOTION_DOT":-3.69e-06,"MEAN_MOTION_DDOT":0},{"OBJECT_NAME":"YAOGAN-41","OBJECT_ID":"2023-197A","EPOCH":"2026-05-22T01:02:22.657056","MEAN_MOTION":1.00272245,"ECCENTRICITY":0.00133761,"INCLINATION":3.176,"RA_OF_ASC_NODE":312.7612,"ARG_OF_PERICENTER":189.3209,"MEAN_ANOMALY":236.3927,"EPHEMERIS_TYPE":0,"CLASSIFICATION_TYPE":"U","NORAD_CAT_ID":58582,"ELEMENT_SET_NO":999,"REV_AT_EPOCH":906,"BSTAR":0,"MEAN_MOTION_DOT":-3.73e-06,"MEAN_MOTION_DDOT":0},{"OBJECT_NAME":"OVZON-3","OBJECT_ID":"2024-003A","EPOCH":"2026-05-21T14:28:25.563360","MEAN_MOTION":1.00271991,"ECCENTRICITY":1.551e-05,"INCLINATION":0.0068,"RA_OF_ASC_NODE":167.9663,"ARG_OF_PERICENTER":71.9395,"MEAN_ANOMALY":276.1163,"EPHEMERIS_TYPE":0,"CLASSIFICATION_TYPE":"U","NORAD_CAT_ID":58698,"ELEMENT_SET_NO":999,"REV_AT_EPOCH":718,"BSTAR":0,"MEAN_MOTION_DOT":4.4e-07,"MEAN_MOTION_DDOT":0},{"OBJECT_NAME":"INSAT-3DS","OBJECT_ID":"2024-033A","EPOCH":"2026-05-21T13:27:38.734272","MEAN_MOTION":1.00269889,"ECCENTRICITY":0.0001314,"INCLINATION":0.0408,"RA_OF_ASC_NODE":253.6125,"ARG_OF_PERICENTER":159.2939,"MEAN_ANOMALY":110.2599,"EPHEMERIS_TYPE":0,"CLASSIFICATION_TYPE":"U","NORAD_CAT_ID":58990,"ELEMENT_SET_NO":999,"REV_AT_EPOCH":4680,"BSTAR":0,"MEAN_MOTION_DOT":-1.63e-06,"MEAN_MOTION_DDOT":0},{"OBJECT_NAME":"MERAH PUTIH 2","OBJECT_ID":"2024-035A","EPOCH":"2026-05-21T13:00:53.608896","MEAN_MOTION":1.00270059,"ECCENTRICITY":0.000158,"INCLINATION":0.0143,"RA_OF_ASC_NODE":267.6009,"ARG_OF_PERICENTER":138.0078,"MEAN_ANOMALY":141.7505,"EPHEMERIS_TYPE":0,"CLASSIFICATION_TYPE":"U","NORAD_CAT_ID":58995,"ELEMENT_SET_NO":999,"REV_AT_EPOCH":832,"BSTAR":0,"MEAN_MOTION_DOT":-3.65e-06,"MEAN_MOTION_DDOT":0},{"OBJECT_NAME":"TJS-11","OBJECT_ID":"2024-037A","EPOCH":"2026-05-21T21:14:38.814144","MEAN_MOTION":1.00264772,"ECCENTRICITY":0.0004742,"INCLINATION":4.2331,"RA_OF_ASC_NODE":326.7683,"ARG_OF_PERICENTER":103.3658,"MEAN_ANOMALY":248.267,"EPHEMERIS_TYPE":0,"CLASSIFICATION_TYPE":"U","NORAD_CAT_ID":59020,"ELEMENT_SET_NO":999,"REV_AT_EPOCH":831,"BSTAR":0,"MEAN_MOTION_DOT":-3.8e-06,"MEAN_MOTION_DDOT":0},{"OBJECT_NAME":"HULIANWAN GAOGUI-01 (HG-01)","OBJECT_ID":"2024-040A","EPOCH":"2026-05-22T05:44:56.688000","MEAN_MOTION":1.00273393,"ECCENTRICITY":0.00034726,"INCLINATION":0.0656,"RA_OF_ASC_NODE":328.6926,"ARG_OF_PERICENTER":66.0394,"MEAN_ANOMALY":325.0435,"EPHEMERIS_TYPE":0,"CLASSIFICATION_TYPE":"U","NORAD_CAT_ID":59069,"ELEMENT_SET_NO":999,"REV_AT_EPOCH":706,"BSTAR":0,"MEAN_MOTION_DOT":1.48e-06,"MEAN_MOTION_DDOT":0},{"OBJECT_NAME":"EUTELSAT 36D","OBJECT_ID":"2024-059A","EPOCH":"2026-05-22T04:02:57.992064","MEAN_MOTION":1.00271109,"ECCENTRICITY":1.96e-05,"INCLINATION":0.0136,"RA_OF_ASC_NODE":314.3603,"ARG_OF_PERICENTER":259.7139,"MEAN_ANOMALY":122.3385,"EPHEMERIS_TYPE":0,"CLASSIFICATION_TYPE":"U","NORAD_CAT_ID":59346,"ELEMENT_SET_NO":999,"REV_AT_EPOCH":788,"BSTAR":0,"MEAN_MOTION_DOT":1.48e-06,"MEAN_MOTION_DDOT":0},{"OBJECT_NAME":"PAKSAT-MM1","OBJECT_ID":"2024-104A","EPOCH":"2026-05-22T05:46:04.080864","MEAN_MOTION":1.00274014,"ECCENTRICITY":0.00013928,"INCLINATION":0.0103,"RA_OF_ASC_NODE":322.3097,"ARG_OF_PERICENTER":86.7567,"MEAN_ANOMALY":315.5132,"EPHEMERIS_TYPE":0,"CLASSIFICATION_TYPE":"U","NORAD_CAT_ID":59915,"ELEMENT_SET_NO":999,"REV_AT_EPOCH":726,"BSTAR":0,"MEAN_MOTION_DOT":1.45e-06,"MEAN_MOTION_DDOT":0},{"OBJECT_NAME":"ASTRA 1P (SES-24)","OBJECT_ID":"2024-115A","EPOCH":"2026-05-21T07:26:08.886912","MEAN_MOTION":1.00269802,"ECCENTRICITY":0.00013,"INCLINATION":0.0755,"RA_OF_ASC_NODE":36.3139,"ARG_OF_PERICENTER":283.6325,"MEAN_ANOMALY":49.7504,"EPHEMERIS_TYPE":0,"CLASSIFICATION_TYPE":"U","NORAD_CAT_ID":60086,"ELEMENT_SET_NO":999,"REV_AT_EPOCH":692,"BSTAR":0,"MEAN_MOTION_DOT":1.12e-06,"MEAN_MOTION_DDOT":0},{"OBJECT_NAME":"GOES 19","OBJECT_ID":"2024-119A","EPOCH":"2026-05-22T05:15:39.392352","MEAN_MOTION":1.00270637,"ECCENTRICITY":3.992e-05,"INCLINATION":0.045,"RA_OF_ASC_NODE":110.0107,"ARG_OF_PERICENTER":18.3537,"MEAN_ANOMALY":115.2087,"EPHEMERIS_TYPE":0,"CLASSIFICATION_TYPE":"U","NORAD_CAT_ID":60133,"ELEMENT_SET_NO":999,"REV_AT_EPOCH":670,"BSTAR":0,"MEAN_MOTION_DOT":-2.56e-06,"MEAN_MOTION_DDOT":0},{"OBJECT_NAME":"ZHONGXING-3A","OBJECT_ID":"2024-122A","EPOCH":"2026-05-21T20:17:38.404032","MEAN_MOTION":1.00273965,"ECCENTRICITY":0.0001147,"INCLINATION":0.0471,"RA_OF_ASC_NODE":93.5218,"ARG_OF_PERICENTER":327.8864,"MEAN_ANOMALY":224.0678,"EPHEMERIS_TYPE":0,"CLASSIFICATION_TYPE":"U","NORAD_CAT_ID":60179,"ELEMENT_SET_NO":999,"REV_AT_EPOCH":704,"BSTAR":0,"MEAN_MOTION_DOT":-3.22e-06,"MEAN_MOTION_DDOT":0},{"OBJECT_NAME":"TURKSAT 6A","OBJECT_ID":"2024-127A","EPOCH":"2026-05-22T04:04:35.337216","MEAN_MOTION":1.00271401,"ECCENTRICITY":9.15e-05,"INCLINATION":0.0421,"RA_OF_ASC_NODE":162.2417,"ARG_OF_PERICENTER":332.2346,"MEAN_ANOMALY":208.4756,"EPHEMERIS_TYPE":0,"CLASSIFICATION_TYPE":"U","NORAD_CAT_ID":60233,"ELEMENT_SET_NO":999,"REV_AT_EPOCH":675,"BSTAR":0,"MEAN_MOTION_DOT":1.38e-06,"MEAN_MOTION_DDOT":0},{"OBJECT_NAME":"HULIANWAN GAOGUI-02 (HG-02)","OBJECT_ID":"2024-135A","EPOCH":"2026-05-22T06:19:00.922368","MEAN_MOTION":1.00272237,"ECCENTRICITY":0.00082706,"INCLINATION":0.0427,"RA_OF_ASC_NODE":355.5599,"ARG_OF_PERICENTER":8.0022,"MEAN_ANOMALY":124.2729,"EPHEMERIS_TYPE":0,"CLASSIFICATION_TYPE":"U","NORAD_CAT_ID":60327,"ELEMENT_SET_NO":999,"REV_AT_EPOCH":724,"BSTAR":0,"MEAN_MOTION_DOT":-1.81e-06,"MEAN_MOTION_DDOT":0},{"OBJECT_NAME":"ZHONGXING-4A","OBJECT_ID":"2024-151A","EPOCH":"2026-05-22T06:08:54.390912","MEAN_MOTION":1.00270908,"ECCENTRICITY":4.664e-05,"INCLINATION":1.3793,"RA_OF_ASC_NODE":271.1703,"ARG_OF_PERICENTER":148.4663,"MEAN_ANOMALY":30.7107,"EPHEMERIS_TYPE":0,"CLASSIFICATION_TYPE":"U","NORAD_CAT_ID":60606,"ELEMENT_SET_NO":999,"REV_AT_EPOCH":649,"BSTAR":0,"MEAN_MOTION_DOT":-3.71e-06,"MEAN_MOTION_DDOT":0}]